{"type": "FeatureCollection", "features": [ {"type": "Feature", "properties": {"norad_id": 34375, "name": "IRIDIUM 33 DEB", "group": "iridium-33-debris", "lat": -20.451145949620155, "lon": -174.82824641741772, "alt_km": 911.2628934998875, "timestamp": "2025-12-03T06:58:43.626629+00:00", "meta": {"OBJECT_NAME": "IRIDIUM 33 DEB", "OBJECT_ID": "1997-051FT", "EPOCH": "2025-12-02T14:23:53.579616", "MEAN_MOTION": 14.17963655, "ECCENTRICITY": 0.01024204, "INCLINATION": 86.4333, "RA_OF_ASC_NODE": 186.7829, "ARG_OF_PERICENTER": 158.6617, "MEAN_ANOMALY": 256.6235, "EPHEMERIS_TYPE": 0, "CLASSIFICATION_TYPE": "U", "NORAD_CAT_ID": 34375, "ELEMENT_SET_NO": 999, "REV_AT_EPOCH": 86568, "BSTAR": 0.00051834177, "MEAN_MOTION_DOT": 1.136e-05, "MEAN_MOTION_DDOT": 0}, "tle": {"line1": "1 34375U 97051FT  25336.59992569  .00001136  00000+0  51834-3 0  9991", "line2": "2 34375  86.4333 186.7829 0102420 158.6617 256.6235 14.17963655865684"}}, "geometry": {"type": "Point", "coordinates": [-174.82824641741772, -20.451145949620155]}}, {"type": "Feature", "properties": {"norad_id": 34376, "name": "IRIDIUM 33 DEB", "group": "iridium-33-debris", "lat": -78.07553220782225, "lon": -7.057611555644542, "alt_km": 690.5314877275441, "timestamp": "2025-12-03T06:58:43.626640+00:00", "meta": {"OBJECT_NAME": "IRIDIUM 33 DEB", "OBJECT_ID": "1997-051FU", "EPOCH": "2025-12-02T19:50:34.864224", "MEAN_MOTION": 14.62334543, "ECCENTRICITY": 0.0026034, "INCLINATION": 86.2997, "RA_OF_ASC_NODE": 10.996, "ARG_OF_PERICENTER": 200.669, "MEAN_ANOMALY": 159.347, "EPHEMERIS_TYPE": 0, "CLASSIFICATION_TYPE": "U", "NORAD_CAT_ID": 34376, "ELEMENT_SET_NO": 999, "REV_AT_EPOCH": 87862, "BSTAR": 0.0019442, "MEAN_MOTION_DOT": 9.891e-05, "MEAN_MOTION_DDOT": 0}, "tle": {"line1": "1 34376U 97051FU  25336.82679241  .00009891  00000+0  19442-2 0  9991", "line2": "2 34376  86.2997  10.9960 0026034 200.6690 159.3470 14.62334543878624"}}, "geometry": {"type": "Point", "coordinates": [-7.057611555644542, -78.07553220782225]}}, {"type": "Feature", "properties": {"norad_id": 34486, "name": "IRIDIUM 33 DEB", "group": "iridium-33-debris", "lat": 82.47119302875261, "lon": 167.89308867643206, "alt_km": 568.5915116331544, "timestamp": "2025-12-03T06:58:43.626650+00:00", "meta": {"OBJECT_NAME": "IRIDIUM 33 DEB", "OBJECT_ID": "1997-051GB", "EPOCH": "2025-12-02T15:02:23.385120", "MEAN_MOTION": 14.95059265, "ECCENTRICITY": 0.00127797, "INCLINATION": 86.395, "RA_OF_ASC_NODE": 16.6902, "ARG_OF_PERICENTER": 145.8353, "MEAN_ANOMALY": 338.7593, "EPHEMERIS_TYPE": 0, "CLASSIFICATION_TYPE": "U", "NORAD_CAT_ID": 34486, "ELEMENT_SET_NO": 999, "REV_AT_EPOCH": 88835, "BSTAR": 0.002717162, "MEAN_MOTION_DOT": 0.00029907, "MEAN_MOTION_DDOT": 0}, "tle": {"line1": "1 34486U 97051GB  25336.62665955  .00029907  00000+0  27172-2 0  9997", "line2": "2 34486  86.3950  16.6902 0012779 145.8353 338.7593 14.95059265888353"}}, "geometry": {"type": "Point", "coordinates": [167.89308867643206, 82.47119302875261]}}, {"type": "Feature", "properties": {"norad_id": 34487, "name": "IRIDIUM 33 DEB", "group": "iridium-33-debris", "lat": 85.07870364753812, "lon": 64.38634232361454, "alt_km": 733.286987197137, "timestamp": "2025-12-03T06:58:43.626660+00:00", "meta": {"OBJECT_NAME": "IRIDIUM 33 DEB", "OBJECT_ID": "1997-051GC", "EPOCH": "2025-12-01T15:14:00.920832", "MEAN_MOTION": 14.43192153, "ECCENTRICITY": 0.00317068, "INCLINATION": 86.3445, "RA_OF_ASC_NODE": 17.1579, "ARG_OF_PERICENTER": 163.7221, "MEAN_ANOMALY": 324.8136, "EPHEMERIS_TYPE": 0, "CLASSIFICATION_TYPE": "U", "NORAD_CAT_ID": 34487, "ELEMENT_SET_NO": 999, "REV_AT_EPOCH": 88088, "BSTAR": 0.0002149908, "MEAN_MOTION_DOT": 7.47e-06, "MEAN_MOTION_DDOT": 0}, "tle": {"line1": "1 34487U 97051GC  25335.63473288  .00000747  00000+0  21499-3 0  9992", "line2": "2 34487  86.3445  17.1579 0031706 163.7221 324.8136 14.43192153880889"}}, "geometry": {"type": "Point", "coordinates": [64.38634232361454, 85.07870364753812]}}, {"type": "Feature", "properties": {"norad_id": 34488, "name": "IRIDIUM 33 DEB", "group": "iridium-33-debris", "lat": 64.0060156769341, "lon": -41.942771258071026, "alt_km": 470.8893797721594, "timestamp": "2025-12-03T06:58:43.626671+00:00", "meta": {"OBJECT_NAME": "IRIDIUM 33 DEB", "OBJECT_ID": "1997-051GD", "EPOCH": "2025-12-02T10:14:15.692928", "MEAN_MOTION": 15.25775894, "ECCENTRICITY": 0.00157603, "INCLINATION": 86.3247, "RA_OF_ASC_NODE": 310.9077, "ARG_OF_PERICENTER": 67.3176, "MEAN_ANOMALY": 292.9735, "EPHEMERIS_TYPE": 0, "CLASSIFICATION_TYPE": "U", "NORAD_CAT_ID": 34488, "ELEMENT_SET_NO": 999, "REV_AT_EPOCH": 89082, "BSTAR": 0.0046883947, "MEAN_MOTION_DOT": 0.00121875, "MEAN_MOTION_DDOT": 0}, "tle": {"line1": "1 34488U 97051GD  25336.42657052  .00121875  00000+0  46884-2 0  9994", "line2": "2 34488  86.3247 310.9077 0015760  67.3176 292.9735 15.25775894890822"}}, "geometry": {"type": "Point", "coordinates": [-41.942771258071026, 64.0060156769341]}}, {"type": "Feature", "properties": {"norad_id": 34492, "name": "IRIDIUM 33 DEB", "group": "iridium-33-debris", "lat": 58.36168824454031, "lon": -15.80217293566556, "alt_km": 919.5289405393114, "timestamp": "2025-12-03T06:58:43.626682+00:00", "meta": {"OBJECT_NAME": "IRIDIUM 33 DEB", "OBJECT_ID": "1997-051GH", "EPOCH": "2025-12-02T11:12:49.891104", "MEAN_MOTION": 14.2523388, "ECCENTRICITY": 0.01904279, "INCLINATION": 86.4708, "RA_OF_ASC_NODE": 338.7817, "ARG_OF_PERICENTER": 271.515, "MEAN_ANOMALY": 243.1192, "EPHEMERIS_TYPE": 0, "CLASSIFICATION_TYPE": "U", "NORAD_CAT_ID": 34492, "ELEMENT_SET_NO": 999, "REV_AT_EPOCH": 84912, "BSTAR": 0.0077482505, "MEAN_MOTION_DOT": 0.00022079, "MEAN_MOTION_DDOT": 0}, "tle": {"line1": "1 34492U 97051GH  25336.46724411  .00022079  00000+0  77483-2 0  9992", "line2": "2 34492  86.4708 338.7817 0190427 271.5150 243.1192 14.25233880849120"}}, "geometry": {"type": "Point", "coordinates": [-15.80217293566556, 58.36168824454031]}}, {"type": "Feature", "properties": {"norad_id": 34497, "name": "IRIDIUM 33 DEB", "group": "iridium-33-debris", "lat": -50.323357284551975, "lon": -119.06218893401832, "alt_km": 851.1647351995116, "timestamp": "2025-12-03T06:58:43.626692+00:00", "meta": {"OBJECT_NAME": "IRIDIUM 33 DEB", "OBJECT_ID": "1997-051GN", "EPOCH": "2025-12-01T05:14:48.727392", "MEAN_MOTION": 14.27398963, "ECCENTRICITY": 0.0080081, "INCLINATION": 86.2784, "RA_OF_ASC_NODE": 57.3223, "ARG_OF_PERICENTER": 16.9295, "MEAN_ANOMALY": 12.6117, "EPHEMERIS_TYPE": 0, "CLASSIFICATION_TYPE": "U", "NORAD_CAT_ID": 34497, "ELEMENT_SET_NO": 999, "REV_AT_EPOCH": 86719, "BSTAR": 0.00069242, "MEAN_MOTION_DOT": 1.774e-05, "MEAN_MOTION_DDOT": 0}, "tle": {"line1": "1 34497U 97051GN  25335.21861953  .00001774  00000+0  69242-3 0  9996", "line2": "2 34497  86.2784  57.3223 0080081  16.9295  12.6117 14.27398963867196"}}, "geometry": {"type": "Point", "coordinates": [-119.06218893401832, -50.323357284551975]}}, {"type": "Feature", "properties": {"norad_id": 34508, "name": "IRIDIUM 33 DEB", "group": "iridium-33-debris", "lat": 17.852846535178756, "lon": 107.81931337010631, "alt_km": 811.1932760978652, "timestamp": "2025-12-03T06:58:43.626702+00:00", "meta": {"OBJECT_NAME": "IRIDIUM 33 DEB", "OBJECT_ID": "1997-051GZ", "EPOCH": "2025-12-02T19:12:23.760000", "MEAN_MOTION": 14.38266528, "ECCENTRICITY": 0.0065434, "INCLINATION": 86.3694, "RA_OF_ASC_NODE": 106.8555, "ARG_OF_PERICENTER": 205.2771, "MEAN_ANOMALY": 154.5222, "EPHEMERIS_TYPE": 0, "CLASSIFICATION_TYPE": "U", "NORAD_CAT_ID": 34508, "ELEMENT_SET_NO": 999, "REV_AT_EPOCH": 87166, "BSTAR": 0.0022851, "MEAN_MOTION_DOT": 7.142e-05, "MEAN_MOTION_DDOT": 0}, "tle": {"line1": "1 34508U 97051GZ  25336.80027500  .00007142  00000+0  22851-2 0  9996", "line2": "2 34508  86.3694 106.8555 0065434 205.2771 154.5222 14.38266528871668"}}, "geometry": {"type": "Point", "coordinates": [107.81931337010631, 17.852846535178756]}}, {"type": "Feature", "properties": {"norad_id": 34521, "name": "IRIDIUM 33 DEB", "group": "iridium-33-debris", "lat": 68.18329446188653, "lon": 43.80270679877901, "alt_km": 676.8102354771363, "timestamp": "2025-12-03T06:58:43.626713+00:00", "meta": {"OBJECT_NAME": "IRIDIUM 33 DEB", "OBJECT_ID": "1997-051HN", "EPOCH": "2025-12-02T15:53:43.501056", "MEAN_MOTION": 14.63214904, "ECCENTRICITY": 0.0001208, "INCLINATION": 86.3816, "RA_OF_ASC_NODE": 34.9839, "ARG_OF_PERICENTER": 299.6067, "MEAN_ANOMALY": 60.5024, "EPHEMERIS_TYPE": 0, "CLASSIFICATION_TYPE": "U", "NORAD_CAT_ID": 34521, "ELEMENT_SET_NO": 999, "REV_AT_EPOCH": 88325, "BSTAR": 0.0012417, "MEAN_MOTION_DOT": 6.415e-05, "MEAN_MOTION_DDOT": 0}, "tle": {"line1": "1 34521U 97051HN  25336.66230904  .00006415  00000+0  12417-2 0  9998", "line2": "2 34521  86.3816  34.9839 0001208 299.6067  60.5024 14.63214904883252"}}, "geometry": {"type": "Point", "coordinates": [43.80270679877901, 68.18329446188653]}}, {"type": "Feature", "properties": {"norad_id": 34525, "name": "IRIDIUM 33 DEB", "group": "iridium-33-debris", "lat": -40.949683754661116, "lon": -125.96907777707133, "alt_km": 756.8485219327513, "timestamp": "2025-12-03T06:58:43.626723+00:00", "meta": {"OBJECT_NAME": "IRIDIUM 33 DEB", "OBJECT_ID": "1997-051HS", "EPOCH": "2025-12-02T17:14:38.044032", "MEAN_MOTION": 14.42863795, "ECCENTRICITY": 0.0006425, "INCLINATION": 86.3736, "RA_OF_ASC_NODE": 51.1204, "ARG_OF_PERICENTER": 118.1402, "MEAN_ANOMALY": 11.9978, "EPHEMERIS_TYPE": 0, "CLASSIFICATION_TYPE": "U", "NORAD_CAT_ID": 34525, "ELEMENT_SET_NO": 999, "REV_AT_EPOCH": 87943, "BSTAR": 0.0005123, "MEAN_MOTION_DOT": 1.729e-05, "MEAN_MOTION_DDOT": 0}, "tle": {"line1": "1 34525U 97051HS  25336.71849588  .00001729  00000+0  51230-3 0  9992", "line2": "2 34525  86.3736  51.1204 0006425 118.1402  11.9978 14.42863795879436"}}, "geometry": {"type": "Point", "coordinates": [-125.96907777707133, -40.949683754661116]}}]}